[{"OBJECT_NAME":"O3B FM5","OBJECT_ID":"2013-031A","EPOCH":"2026-03-14T11:48:20.150496","MEAN_MOTION":5.00116471,"ECCENTRICITY":0.00032893,"INCLINATION":0.0994,"RA_OF_ASC_NODE":11.3133,"ARG_OF_PERICENTER":333.1293,"MEAN_ANOMALY":15.5439,"EPHEMERIS_TYPE":0,"CLASSIFICATION_TYPE":"U","NORAD_CAT_ID":39188,"ELEMENT_SET_NO":999,"REV_AT_EPOCH":23229,"BSTAR":0,"MEAN_MOTION_DOT":-2.1e-7,"MEAN_MOTION_DDOT":0},{"OBJECT_NAME":"O3B FM4","OBJECT_ID":"2013-031B","EPOCH":"2026-03-13T09:52:53.892768","MEAN_MOTION":5.00115278,"ECCENTRICITY":0.00050987,"INCLINATION":0.0547,"RA_OF_ASC_NODE":345.1246,"ARG_OF_PERICENTER":15.5435,"MEAN_ANOMALY":359.3289,"EPHEMERIS_TYPE":0,"CLASSIFICATION_TYPE":"U","NORAD_CAT_ID":39189,"ELEMENT_SET_NO":999,"REV_AT_EPOCH":23224,"BSTAR":0,"MEAN_MOTION_DOT":-2.2e-7,"MEAN_MOTION_DDOT":0},{"OBJECT_NAME":"O3B FM2","OBJECT_ID":"2013-031C","EPOCH":"2026-03-14T06:38:49.768224","MEAN_MOTION":5.00116009,"ECCENTRICITY":0.00028222,"INCLINATION":0.055,"RA_OF_ASC_NODE":338.8712,"ARG_OF_PERICENTER":11.399,"MEAN_ANOMALY":9.7208,"EPHEMERIS_TYPE":0,"CLASSIFICATION_TYPE":"U","NORAD_CAT_ID":39190,"ELEMENT_SET_NO":999,"REV_AT_EPOCH":23236,"BSTAR":0,"MEAN_MOTION_DOT":-2.1e-7,"MEAN_MOTION_DDOT":0},{"OBJECT_NAME":"O3B PFM","OBJECT_ID":"2013-031D","EPOCH":"2026-03-06T02:17:37.197024","MEAN_MOTION":5.00115906,"ECCENTRICITY":0.00051477,"INCLINATION":0.0668,"RA_OF_ASC_NODE":7.2787,"ARG_OF_PERICENTER":352.3292,"MEAN_ANOMALY":0.3862,"EPHEMERIS_TYPE":0,"CLASSIFICATION_TYPE":"U","NORAD_CAT_ID":39191,"ELEMENT_SET_NO":999,"REV_AT_EPOCH":23151,"BSTAR":0,"MEAN_MOTION_DOT":-2.6e-7,"MEAN_MOTION_DDOT":0},{"OBJECT_NAME":"O3B FM3","OBJECT_ID":"2014-038A","EPOCH":"2026-03-14T13:22:56.323776","MEAN_MOTION":5.00115628,"ECCENTRICITY":6.444e-5,"INCLINATION":0.0529,"RA_OF_ASC_NODE":353.7169,"ARG_OF_PERICENTER":62.9955,"MEAN_ANOMALY":303.2902,"EPHEMERIS_TYPE":0,"CLASSIFICATION_TYPE":"U","NORAD_CAT_ID":40079,"ELEMENT_SET_NO":999,"REV_AT_EPOCH":20830,"BSTAR":0,"MEAN_MOTION_DOT":-2.0e-7,"MEAN_MOTION_DDOT":0},{"OBJECT_NAME":"O3B FM7","OBJECT_ID":"2014-038B","EPOCH":"2026-03-13T07:18:15.302592","MEAN_MOTION":5.00115635,"ECCENTRICITY":0.00043845,"INCLINATION":0.0586,"RA_OF_ASC_NODE":348.607,"ARG_OF_PERICENTER":352.5506,"MEAN_ANOMALY":18.8225,"EPHEMERIS_TYPE":0,"CLASSIFICATION_TYPE":"U","NORAD_CAT_ID":40080,"ELEMENT_SET_NO":999,"REV_AT_EPOCH":21308,"BSTAR":0,"MEAN_MOTION_DOT":-2.2e-7,"MEAN_MOTION_DDOT":0},{"OBJECT_NAME":"O3B FM6","OBJECT_ID":"2014-038C","EPOCH":"2026-03-14T12:44:11.765472","MEAN_MOTION":5.00115702,"ECCENTRICITY":0.00026399,"INCLINATION":0.0547,"RA_OF_ASC_NODE":351.2967,"ARG_OF_PERICENTER":1.0784,"MEAN_ANOMALY":7.6174,"EPHEMERIS_TYPE":0,"CLASSIFICATION_TYPE":"U","NORAD_CAT_ID":40081,"ELEMENT_SET_NO":999,"REV_AT_EPOCH":21309,"BSTAR":0,"MEAN_MOTION_DOT":-2.0e-7,"MEAN_MOTION_DDOT":0},{"OBJECT_NAME":"O3B FM8","OBJECT_ID":"2014-038D","EPOCH":"2026-03-14T04:25:16.798080","MEAN_MOTION":5.00116014,"ECCENTRICITY":0.00026476,"INCLINATION":0.0555,"RA_OF_ASC_NODE":350.6132,"ARG_OF_PERICENTER":4.5116,"MEAN_ANOMALY":4.869,"EPHEMERIS_TYPE":0,"CLASSIFICATION_TYPE":"U","NORAD_CAT_ID":40082,"ELEMENT_SET_NO":999,"REV_AT_EPOCH":21319,"BSTAR":0,"MEAN_MOTION_DOT":-2.1e-7,"MEAN_MOTION_DDOT":0},{"OBJECT_NAME":"O3B FM10","OBJECT_ID":"2014-083A","EPOCH":"2026-03-11T09:54:27.943488","MEAN_MOTION":5.00115268,"ECCENTRICITY":0.00026511,"INCLINATION":0.0429,"RA_OF_ASC_NODE":348.257,"ARG_OF_PERICENTER":1.066,"MEAN_ANOMALY":10.6675,"EPHEMERIS_TYPE":0,"CLASSIFICATION_TYPE":"U","NORAD_CAT_ID":40348,"ELEMENT_SET_NO":999,"REV_AT_EPOCH":20499,"BSTAR":0,"MEAN_MOTION_DOT":-2.4e-7,"MEAN_MOTION_DDOT":0},{"OBJECT_NAME":"O3B FM11","OBJECT_ID":"2014-083B","EPOCH":"2026-03-14T10:10:24.962592","MEAN_MOTION":5.00115618,"ECCENTRICITY":0.00030916,"INCLINATION":0.0572,"RA_OF_ASC_NODE":0.2592,"ARG_OF_PERICENTER":341.0605,"MEAN_ANOMALY":18.6654,"EPHEMERIS_TYPE":0,"CLASSIFICATION_TYPE":"U","NORAD_CAT_ID":40349,"ELEMENT_SET_NO":999,"REV_AT_EPOCH":20516,"BSTAR":0,"MEAN_MOTION_DOT":-2.1e-7,"MEAN_MOTION_DDOT":0},{"OBJECT_NAME":"O3B FM12","OBJECT_ID":"2014-083C","EPOCH":"2026-03-14T10:49:25.354560","MEAN_MOTION":5.00115991,"ECCENTRICITY":0.00026136,"INCLINATION":0.0566,"RA_OF_ASC_NODE":359.5721,"ARG_OF_PERICENTER":347.2376,"MEAN_ANOMALY":13.1799,"EPHEMERIS_TYPE":0,"CLASSIFICATION_TYPE":"U","NORAD_CAT_ID":40350,"ELEMENT_SET_NO":999,"REV_AT_EPOCH":20518,"BSTAR":0,"MEAN_MOTION_DOT":-2.1e-7,"MEAN_MOTION_DDOT":0},{"OBJECT_NAME":"O3B FM9","OBJECT_ID":"2014-083D","EPOCH":"2026-03-14T06:40:12.988704","MEAN_MOTION":5.00115942,"ECCENTRICITY":0.00027185,"INCLINATION":0.0584,"RA_OF_ASC_NODE":0.4641,"ARG_OF_PERICENTER":351.8476,"MEAN_ANOMALY":7.6806,"EPHEMERIS_TYPE":0,"CLASSIFICATION_TYPE":"U","NORAD_CAT_ID":40351,"ELEMENT_SET_NO":999,"REV_AT_EPOCH":20532,"BSTAR":0,"MEAN_MOTION_DOT":-2.1e-7,"MEAN_MOTION_DDOT":0},{"OBJECT_NAME":"LEO 1 (LEO VANTAGE 1)","OBJECT_ID":"2018-004C","EPOCH":"2026-03-14T14:47:23.708832","MEAN_MOTION":14.67241047,"ECCENTRICITY":0.03525247,"INCLINATION":99.2472,"RA_OF_ASC_NODE":339.5756,"ARG_OF_PERICENTER":9.8225,"MEAN_ANOMALY":350.9635,"EPHEMERIS_TYPE":0,"CLASSIFICATION_TYPE":"U","NORAD_CAT_ID":43113,"ELEMENT_SET_NO":999,"REV_AT_EPOCH":42361,"BSTAR":0.00041691119,"MEAN_MOTION_DOT":6.011e-5,"MEAN_MOTION_DDOT":0},{"OBJECT_NAME":"O3B FM15","OBJECT_ID":"2018-024A","EPOCH":"2026-03-14T13:04:12.191520","MEAN_MOTION":5.00115732,"ECCENTRICITY":0.0002675,"INCLINATION":0.0491,"RA_OF_ASC_NODE":1.4158,"ARG_OF_PERICENTER":348.4607,"MEAN_ANOMALY":10.1147,"EPHEMERIS_TYPE":0,"CLASSIFICATION_TYPE":"U","NORAD_CAT_ID":43231,"ELEMENT_SET_NO":999,"REV_AT_EPOCH":14628,"BSTAR":0,"MEAN_MOTION_DOT":-2.0e-7,"MEAN_MOTION_DDOT":0},{"OBJECT_NAME":"O3B FM16","OBJECT_ID":"2018-024B","EPOCH":"2026-03-14T09:31:46.371072","MEAN_MOTION":5.00115912,"ECCENTRICITY":0.00028073,"INCLINATION":0.0455,"RA_OF_ASC_NODE":3.7254,"ARG_OF_PERICENTER":343.2116,"MEAN_ANOMALY":13.0522,"EPHEMERIS_TYPE":0,"CLASSIFICATION_TYPE":"U","NORAD_CAT_ID":43232,"ELEMENT_SET_NO":999,"REV_AT_EPOCH":14620,"BSTAR":0,"MEAN_MOTION_DOT":-2.1e-7,"MEAN_MOTION_DDOT":0},{"OBJECT_NAME":"O3B FM14","OBJECT_ID":"2018-024C","EPOCH":"2026-03-12T15:19:53.120928","MEAN_MOTION":5.00115666,"ECCENTRICITY":0.00028427,"INCLINATION":0.0439,"RA_OF_ASC_NODE":2.773,"ARG_OF_PERICENTER":349.0319,"MEAN_ANOMALY":8.1868,"EPHEMERIS_TYPE":0,"CLASSIFICATION_TYPE":"U","NORAD_CAT_ID":43233,"ELEMENT_SET_NO":999,"REV_AT_EPOCH":14612,"BSTAR":0,"MEAN_MOTION_DOT":-2.3e-7,"MEAN_MOTION_DDOT":0},{"OBJECT_NAME":"O3B FM13","OBJECT_ID":"2018-024D","EPOCH":"2026-03-13T02:30:24.004800","MEAN_MOTION":5.0011563,"ECCENTRICITY":0.00037966,"INCLINATION":0.0487,"RA_OF_ASC_NODE":334.7219,"ARG_OF_PERICENTER":336.321,"MEAN_ANOMALY":48.9207,"EPHEMERIS_TYPE":0,"CLASSIFICATION_TYPE":"U","NORAD_CAT_ID":43234,"ELEMENT_SET_NO":999,"REV_AT_EPOCH":14625,"BSTAR":0,"MEAN_MOTION_DOT":-2.2e-7,"MEAN_MOTION_DDOT":0}]
